[{"OBJECT_NAME":"STARLINK-2763","OBJECT_ID":"2021-044AJ","EPOCH":"2026-03-09T22:24:35.647488","MEAN_MOTION":15.30180059,"ECCENTRICITY":0.00013123,"INCLINATION":53.1603,"RA_OF_ASC_NODE":103.0664,"ARG_OF_PERICENTER":86.0999,"MEAN_ANOMALY":274.0152,"EPHEMERIS_TYPE":0,"CLASSIFICATION_TYPE":"U","NORAD_CAT_ID":48670,"ELEMENT_SET_NO":999,"REV_AT_EPOCH":26399,"BSTAR":2.1771933e-5,"MEAN_MOTION_DOT":2.85e-6,"MEAN_MOTION_DDOT":0},{"OBJECT_NAME":"GLOBAL-34","OBJECT_ID":"2026-043A","EPOCH":"2026-03-09T11:23:30.999840","MEAN_MOTION":15.31488019,"ECCENTRICITY":0.00068849,"INCLINATION":42.0215,"RA_OF_ASC_NODE":76.7399,"ARG_OF_PERICENTER":289.2632,"MEAN_ANOMALY":70.746,"EPHEMERIS_TYPE":0,"CLASSIFICATION_TYPE":"U","NORAD_CAT_ID":68098,"ELEMENT_SET_NO":999,"REV_AT_EPOCH":53,"BSTAR":0.00045822046,"MEAN_MOTION_DOT":0.00014018,"MEAN_MOTION_DDOT":0}]
